{"type": "FeatureCollection", "features": [ {"type": "Feature", "properties": {"norad_id": 34529, "name": "IRIDIUM 33 DEB", "group": "iridium-33-debris", "lat": 15.408952816718697, "lon": 35.54369957109563, "alt_km": 760.446238015511, "timestamp": "2025-12-14T18:52:55.888759+00:00", "meta": {"OBJECT_NAME": "IRIDIUM 33 DEB", "OBJECT_ID": "1997-051HW", "EPOCH": "2025-12-13T04:28:09.694848", "MEAN_MOTION": 14.40616367, "ECCENTRICITY": 0.00048664, "INCLINATION": 86.3641, "RA_OF_ASC_NODE": 35.2216, "ARG_OF_PERICENTER": 175.3623, "MEAN_ANOMALY": 184.7623, "EPHEMERIS_TYPE": 0, "CLASSIFICATION_TYPE": "U", "NORAD_CAT_ID": 34529, "ELEMENT_SET_NO": 999, "REV_AT_EPOCH": 88148, "BSTAR": 0.00016827646, "MEAN_MOTION_DOT": 5.56e-06, "MEAN_MOTION_DDOT": 0}, "tle": {"line1": "1 34529U 97051HW  25347.18622332  .00000556  00000+0  16828-3 0  9996", "line2": "2 34529  86.3641  35.2216 0004866 175.3623 184.7623 14.40616367881481"}}, "geometry": {"type": "Point", "coordinates": [35.54369957109563, 15.408952816718697]}}, {"type": "Feature", "properties": {"norad_id": 34538, "name": "IRIDIUM 33 DEB", "group": "iridium-33-debris", "lat": -47.25966524238295, "lon": -171.30004012664074, "alt_km": 758.1378597835319, "timestamp": "2025-12-14T18:52:55.888770+00:00", "meta": {"OBJECT_NAME": "IRIDIUM 33 DEB", "OBJECT_ID": "1997-051JF", "EPOCH": "2025-12-12T19:29:58.055136", "MEAN_MOTION": 14.42648871, "ECCENTRICITY": 0.0032777, "INCLINATION": 86.2773, "RA_OF_ASC_NODE": 5.524, "ARG_OF_PERICENTER": 327.8022, "MEAN_ANOMALY": 92.8362, "EPHEMERIS_TYPE": 0, "CLASSIFICATION_TYPE": "U", "NORAD_CAT_ID": 34538, "ELEMENT_SET_NO": 999, "REV_AT_EPOCH": 87757, "BSTAR": 0.0014020322, "MEAN_MOTION_DOT": 4.708e-05, "MEAN_MOTION_DDOT": 0}, "tle": {"line1": "1 34538U 97051JF  25346.81247749  .00004708  00000+0  14020-2 0  9994", "line2": "2 34538  86.2773   5.5240 0032777 327.8022  92.8362 14.42648871877573"}}, "geometry": {"type": "Point", "coordinates": [-171.30004012664074, -47.25966524238295]}}, {"type": "Feature", "properties": {"norad_id": 34540, "name": "IRIDIUM 33 DEB", "group": "iridium-33-debris", "lat": 13.412543785493732, "lon": 125.78928670881217, "alt_km": 633.8381408647083, "timestamp": "2025-12-14T18:52:55.888780+00:00", "meta": {"OBJECT_NAME": "IRIDIUM 33 DEB", "OBJECT_ID": "1997-051JH", "EPOCH": "2025-12-13T21:13:41.307168", "MEAN_MOTION": 14.75357802, "ECCENTRICITY": 0.00166291, "INCLINATION": 86.3099, "RA_OF_ASC_NODE": 307.0836, "ARG_OF_PERICENTER": 155.1807, "MEAN_ANOMALY": 262.2011, "EPHEMERIS_TYPE": 0, "CLASSIFICATION_TYPE": "U", "NORAD_CAT_ID": 34540, "ELEMENT_SET_NO": 999, "REV_AT_EPOCH": 89038, "BSTAR": 0.0017757378, "MEAN_MOTION_DOT": 0.00012101, "MEAN_MOTION_DDOT": 0}, "tle": {"line1": "1 34540U 97051JH  25347.88450587  .00012101  00000+0  17757-2 0  9997", "line2": "2 34540  86.3099 307.0836 0016629 155.1807 262.2011 14.75357802890385"}}, "geometry": {"type": "Point", "coordinates": [125.78928670881217, 13.412543785493732]}}, {"type": "Feature", "properties": {"norad_id": 34648, "name": "IRIDIUM 33 DEB", "group": "iridium-33-debris", "lat": -21.617736843755804, "lon": 102.55370035484508, "alt_km": 859.0508706005112, "timestamp": "2025-12-14T18:52:55.888791+00:00", "meta": {"OBJECT_NAME": "IRIDIUM 33 DEB", "OBJECT_ID": "1997-051JZ", "EPOCH": "2025-12-13T19:47:40.836480", "MEAN_MOTION": 14.11548438, "ECCENTRICITY": 0.01824148, "INCLINATION": 86.3898, "RA_OF_ASC_NODE": 281.5085, "ARG_OF_PERICENTER": 295.4937, "MEAN_ANOMALY": 62.7476, "EPHEMERIS_TYPE": 0, "CLASSIFICATION_TYPE": "U", "NORAD_CAT_ID": 34648, "ELEMENT_SET_NO": 999, "REV_AT_EPOCH": 84976, "BSTAR": 0.007354752, "MEAN_MOTION_DOT": 0.00015643, "MEAN_MOTION_DDOT": 0}, "tle": {"line1": "1 34648U 97051JZ  25347.82477820  .00015643  00000+0  73548-2 0  9993", "line2": "2 34648  86.3898 281.5085 0182414 295.4937  62.7476 14.11548438849762"}}, "geometry": {"type": "Point", "coordinates": [102.55370035484508, -21.617736843755804]}}, {"type": "Feature", "properties": {"norad_id": 34651, "name": "IRIDIUM 33 DEB", "group": "iridium-33-debris", "lat": 6.724110268120418, "lon": 140.1456988785194, "alt_km": 908.0371073571469, "timestamp": "2025-12-14T18:52:55.888801+00:00", "meta": {"OBJECT_NAME": "IRIDIUM 33 DEB", "OBJECT_ID": "1997-051KC", "EPOCH": "2025-12-13T20:57:14.690016", "MEAN_MOTION": 14.25844913, "ECCENTRICITY": 0.01421121, "INCLINATION": 86.2827, "RA_OF_ASC_NODE": 140.0953, "ARG_OF_PERICENTER": 200.3325, "MEAN_ANOMALY": 159.2175, "EPHEMERIS_TYPE": 0, "CLASSIFICATION_TYPE": "U", "NORAD_CAT_ID": 34651, "ELEMENT_SET_NO": 999, "REV_AT_EPOCH": 85912, "BSTAR": 0.0036592158, "MEAN_MOTION_DOT": 9.701e-05, "MEAN_MOTION_DDOT": 0}, "tle": {"line1": "1 34651U 97051KC  25347.87308669  .00009701  00000+0  36592-2 0  9992", "line2": "2 34651  86.2827 140.0953 0142112 200.3325 159.2175 14.25844913859128"}}, "geometry": {"type": "Point", "coordinates": [140.1456988785194, 6.724110268120418]}}, {"type": "Feature", "properties": {"norad_id": 34652, "name": "IRIDIUM 33 DEB", "group": "iridium-33-debris", "lat": -35.607202998674744, "lon": -23.542999379746956, "alt_km": 677.5922466121383, "timestamp": "2025-12-14T18:52:55.888811+00:00", "meta": {"OBJECT_NAME": "IRIDIUM 33 DEB", "OBJECT_ID": "1997-051KD", "EPOCH": "2025-12-13T23:36:33.899616", "MEAN_MOTION": 14.62075678, "ECCENTRICITY": 0.00258131, "INCLINATION": 86.3313, "RA_OF_ASC_NODE": 339.4479, "ARG_OF_PERICENTER": 293.8029, "MEAN_ANOMALY": 126.4351, "EPHEMERIS_TYPE": 0, "CLASSIFICATION_TYPE": "U", "NORAD_CAT_ID": 34652, "ELEMENT_SET_NO": 999, "REV_AT_EPOCH": 88502, "BSTAR": 0.0011103852, "MEAN_MOTION_DOT": 5.623e-05, "MEAN_MOTION_DDOT": 0}, "tle": {"line1": "1 34652U 97051KD  25347.98372569  .00005623  00000+0  11104-2 0  9996", "line2": "2 34652  86.3313 339.4479 0025813 293.8029 126.4351 14.62075678885028"}}, "geometry": {"type": "Point", "coordinates": [-23.542999379746956, -35.607202998674744]}}, {"type": "Feature", "properties": {"norad_id": 34690, "name": "IRIDIUM 33 DEB", "group": "iridium-33-debris", "lat": 43.88751569217267, "lon": -147.39086178460983, "alt_km": 708.3976453779878, "timestamp": "2025-12-14T18:52:55.888821+00:00", "meta": {"OBJECT_NAME": "IRIDIUM 33 DEB", "OBJECT_ID": "1997-051KM", "EPOCH": "2025-12-13T14:54:06.857280", "MEAN_MOTION": 14.55100621, "ECCENTRICITY": 0.00107565, "INCLINATION": 86.3785, "RA_OF_ASC_NODE": 36.6083, "ARG_OF_PERICENTER": 26.8254, "MEAN_ANOMALY": 125.7841, "EPHEMERIS_TYPE": 0, "CLASSIFICATION_TYPE": "U", "NORAD_CAT_ID": 34690, "ELEMENT_SET_NO": 999, "REV_AT_EPOCH": 88107, "BSTAR": 0.00059932597, "MEAN_MOTION_DOT": 2.608e-05, "MEAN_MOTION_DDOT": 0}, "tle": {"line1": "1 34690U 97051KM  25347.62091270  .00002608  00000+0  59933-3 0  9999", "line2": "2 34690  86.3785  36.6083 0010756  26.8254 125.7841 14.55100621881070"}}, "geometry": {"type": "Point", "coordinates": [-147.39086178460983, 43.88751569217267]}}, {"type": "Feature", "properties": {"norad_id": 34693, "name": "IRIDIUM 33 DEB", "group": "iridium-33-debris", "lat": 1.9934954645747713, "lon": -57.06288573848069, "alt_km": 476.62311488337946, "timestamp": "2025-12-14T18:52:55.888832+00:00", "meta": {"OBJECT_NAME": "IRIDIUM 33 DEB", "OBJECT_ID": "1997-051KQ", "EPOCH": "2025-12-13T21:06:52.559136", "MEAN_MOTION": 15.28305314, "ECCENTRICITY": 0.00133969, "INCLINATION": 86.305, "RA_OF_ASC_NODE": 303.2591, "ARG_OF_PERICENTER": 51.3124, "MEAN_ANOMALY": 3.8172, "EPHEMERIS_TYPE": 0, "CLASSIFICATION_TYPE": "U", "NORAD_CAT_ID": 34693, "ELEMENT_SET_NO": 999, "REV_AT_EPOCH": 88932, "BSTAR": 0.0049107744, "MEAN_MOTION_DOT": 0.00137946, "MEAN_MOTION_DDOT": 0}, "tle": {"line1": "1 34693U 97051KQ  25347.87977499  .00137946  00000+0  49108-2 0  9991", "line2": "2 34693  86.3050 303.2591 0013396  51.3124   3.8172 15.28305314889323"}}, "geometry": {"type": "Point", "coordinates": [-57.06288573848069, 1.9934954645747713]}}, {"type": "Feature", "properties": {"norad_id": 34696, "name": "IRIDIUM 33 DEB", "group": "iridium-33-debris", "lat": -11.704597914913933, "lon": 25.77840937417922, "alt_km": 732.4314325585901, "timestamp": "2025-12-14T18:52:55.888842+00:00", "meta": {"OBJECT_NAME": "IRIDIUM 33 DEB", "OBJECT_ID": "1997-051KT", "EPOCH": "2025-12-13T03:54:02.435616", "MEAN_MOTION": 14.65143747, "ECCENTRICITY": 0.00741248, "INCLINATION": 86.1855, "RA_OF_ASC_NODE": 27.3258, "ARG_OF_PERICENTER": 165.9902, "MEAN_ANOMALY": 260.687, "EPHEMERIS_TYPE": 0, "CLASSIFICATION_TYPE": "U", "NORAD_CAT_ID": 34696, "ELEMENT_SET_NO": 999, "REV_AT_EPOCH": 86679, "BSTAR": 0.0067723801, "MEAN_MOTION_DOT": 0.00038084, "MEAN_MOTION_DDOT": 0}, "tle": {"line1": "1 34696U 97051KT  25347.16252819  .00038084  00000+0  67724-2 0  9995", "line2": "2 34696  86.1855  27.3258 0074124 165.9902 260.6870 14.65143747866797"}}, "geometry": {"type": "Point", "coordinates": [25.77840937417922, -11.704597914913933]}}, {"type": "Feature", "properties": {"norad_id": 34765, "name": "IRIDIUM 33 DEB", "group": "iridium-33-debris", "lat": 56.525870434472246, "lon": 37.4390634889885, "alt_km": 760.9566265805797, "timestamp": "2025-12-14T18:52:55.888852+00:00", "meta": {"OBJECT_NAME": "IRIDIUM 33 DEB", "OBJECT_ID": "1997-051LJ", "EPOCH": "2025-12-13T02:44:34.828800", "MEAN_MOTION": 14.40467179, "ECCENTRICITY": 0.00154785, "INCLINATION": 86.3397, "RA_OF_ASC_NODE": 32.601, "ARG_OF_PERICENTER": 210.1302, "MEAN_ANOMALY": 179.3412, "EPHEMERIS_TYPE": 0, "CLASSIFICATION_TYPE": "U", "NORAD_CAT_ID": 34765, "ELEMENT_SET_NO": 999, "REV_AT_EPOCH": 87619, "BSTAR": 0.00062555047, "MEAN_MOTION_DOT": 2.01e-05, "MEAN_MOTION_DDOT": 0}, "tle": {"line1": "1 34765U 97051LJ  25347.11429200  .00002010  00000+0  62555-3 0  9995", "line2": "2 34765  86.3397  32.6010 0015478 210.1302 179.3412 14.40467179876190"}}, "geometry": {"type": "Point", "coordinates": [37.4390634889885, 56.525870434472246]}}]}